[{"OBJECT_NAME":"SHIYAN-20A (SY-20A)","OBJECT_ID":"2022-169A","EPOCH":"2026-03-09T23:38:29.678208","MEAN_MOTION":14.29494518,"ECCENTRICITY":0.0017718,"INCLINATION":59.9953,"RA_OF_ASC_NODE":208.2856,"ARG_OF_PERICENTER":122.2308,"MEAN_ANOMALY":238.0448,"EPHEMERIS_TYPE":0,"CLASSIFICATION_TYPE":"U","NORAD_CAT_ID":54699,"ELEMENT_SET_NO":999,"REV_AT_EPOCH":16917,"BSTAR":9.5561702e-5,"MEAN_MOTION_DOT":1.09e-6,"MEAN_MOTION_DDOT":0},{"OBJECT_NAME":"DELTA 1 DEB","OBJECT_ID":"1972-058JT","EPOCH":"2026-03-04T03:51:38.182176","MEAN_MOTION":14.48951321,"ECCENTRICITY":0.00960347,"INCLINATION":97.8713,"RA_OF_ASC_NODE":33.3768,"ARG_OF_PERICENTER":152.0336,"MEAN_ANOMALY":274.5229,"EPHEMERIS_TYPE":0,"CLASSIFICATION_TYPE":"U","NORAD_CAT_ID":42560,"ELEMENT_SET_NO":999,"REV_AT_EPOCH":64851,"BSTAR":0.00015577038,"MEAN_MOTION_DOT":5.83e-6,"MEAN_MOTION_DDOT":0}]
